$$SOE
2460728.500000000, A.D. 2025-Feb-22 00:00:00.0000, -1.795919395257105E+08, -6.035503855356999E+07, 1.553186600490241E+07,
2460735.500000000, A.D. 2025-Mar-01 00:00:00.0000, -1.721916789458954E+08, -7.726988747185774E+07, 1.756130898392422E+07,
2460742.500000000, A.D. 2025-Mar-08 00:00:00.0000, -1.635655473240211E+08, -9.363454664023723E+07, 1.946571214955963E+07,
2460749.500000000, A.D. 2025-Mar-15 00:00:00.0000, -1.537734754545127E+08, -1.093318496833930E+08, 2.123136651969358E+07,
2460756.500000000, A.D. 2025-Mar-22 00:00:00.0000, -1.428919966932588E+08, -1.242548908905989E+08, 2.284664351938796E+07,
2460763.500000000, A.D. 2025-Mar-29 00:00:00.0000, -1.310117307683761E+08, -1.383099329055505E+08, 2.430229340322752E+07,
2460770.500000000, A.D. 2025-Apr-05 00:00:00.0000, -1.182342611532580E+08, -1.514185485275131E+08, 2.559161399820422E+07,
2460777.500000000, A.D. 2025-Apr-12 00:00:00.0000, -1.046686824134804E+08, -1.635188803689359E+08, 2.671048503266615E+07,
2460784.500000000, A.D. 2025-Apr-19 00:00:00.0000, -9.042810255426057E+07, -1.745660071107873E+08, 2.765727780680441E+07,
2460791.500000000, A.D. 2025-Apr-26 00:00:00.0000, -7.562635431023274E+07, -1.845314975734579E+08, 2.843266154764736E+07,
2460798.500000000, A.D. 2025-May-03 00:00:00.0000, -6.037510962573969E+07, -1.934023012523648E+08, 2.903933471520083E+07,
2460805.500000000, A.D. 2025-May-10 00:00:00.0000, -4.478151823921917E+07, -2.011791596199571E+08, 2.948171146462954E+07,
2460812.500000000, A.D. 2025-May-17 00:00:00.0000, -2.894641904076403E+07, -2.078747277549129E+08, 2.976559123904846E+07,
2460819.500000000, A.D. 2025-May-24 00:00:00.0000, -1.296311243198285E+07, -2.135115777682727E+08, 2.989783454674181E+07,
2460826.500000000, A.D. 2025-May-31 00:00:00.0000, 3.083361207832672E+06, -2.181202228802519E+08, 2.988606188924035E+07,
2460833.500000000, A.D. 2025-Jun-07 00:00:00.0000, 1.911651588469337E+07, -2.217372623138605E+08, 2.973838679464223E+07,
2460840.500000000, A.D. 2025-Jun-14 00:00:00.0000, 3.506837366359839E+07, -2.244037123834333E+08, 2.946318848585228E+07,
2460847.500000000, A.D. 2025-Jun-21 00:00:00.0000, 5.087916593366998E+07, -2.261635604420613E+08, 2.906892489322189E+07,
2460854.500000000, A.D. 2025-Jun-28 00:00:00.0000, 6.649686351041548E+07, -2.270625491606740E+08, 2.856398397551056E+07,
2460861.500000000, A.D. 2025-Jul-05 00:00:00.0000, 8.187659960081026E+07, -2.271471812799417E+08, 2.795656994434851E+07,
2460868.500000000, A.D. 2025-Jul-12 00:00:00.0000, 9.698003642856349E+07, -2.264639273009511E+08, 2.725461980045389E+07,
2460875.500000000, A.D. 2025-Jul-19 00:00:00.0000, 1.117747148733478E+08, -2.250586127133535E+08, 2.646574523104391E+07,
2460882.500000000, A.D. 2025-Jul-26 00:00:00.0000, 1.262334153213613E+08, -2.229759588517971E+08, 2.559719514855927E+07,
2460889.500000000, A.D. 2025-Aug-02 00:00:00.0000, 1.403335485951681E+08, -2.202592518477645E+08, 2.465583461512405E+07,
2460896.500000000, A.D. 2025-Aug-09 00:00:00.0000, 1.540565885858892E+08, -2.169501161041567E+08, 2.364813645531636E+07,
2460903.500000000, A.D. 2025-Aug-16 00:00:00.0000, 1.673875528527471E+08, -2.130883714400911E+08, 2.258018243019563E+07,
2460910.500000000, A.D. 2025-Aug-23 00:00:00.0000, 1.803145337733307E+08, -2.087119559103773E+08, 2.145767138569339E+07,
2460917.500000000, A.D. 2025-Aug-30 00:00:00.0000, 1.928282801762433E+08, -2.038568984973052E+08, 2.028593234075391E+07,
2460924.500000000, A.D. 2025-Sep-06 00:00:00.0000, 2.049218258890252E+08, -1.985573282485870E+08, 1.906994109586230E+07,
2460931.500000000, A.D. 2025-Sep-13 00:00:00.0000, 2.165901603321725E+08, -1.928455122750699E+08, 1.781433904751199E+07,
2460938.500000000, A.D. 2025-Sep-20 00:00:00.0000, 2.278299406901037E+08, -1.867519162170934E+08, 1.652345281473136E+07,
2460945.500000000, A.D. 2025-Sep-27 00:00:00.0000, 2.386392427786343E+08, -1.803052777526024E+08, 1.520131412407094E+07,
2460952.500000000, A.D. 2025-Oct-04 00:00:00.0000, 2.490173446800830E+08, -1.735326877125012E+08, 1.385167966685242E+07,
2460959.500000000, A.D. 2025-Oct-11 00:00:00.0000, 2.589645390296217E+08, -1.664596760001899E+08, 1.247805052184437E+07,
2460966.500000000, A.D. 2025-Oct-18 00:00:00.0000, 2.684819707501134E+08, -1.591102997648240E+08, 1.108369084721345E+07,
2460973.500000000, A.D. 2025-Oct-25 00:00:00.0000, 2.775714971891929E+08, -1.515072317240787E+08, 9.671645670661338E+06,
2460980.500000000, A.D. 2025-Nov-01 00:00:00.0000, 2.862355678278012E+08, -1.436718471032424E+08, 8.244757682515420E+06,
2460987.500000000, A.D. 2025-Nov-08 00:00:00.0000, 2.944771210351104E+08, -1.356243081526746E+08, 6.805682981818371E+06,
2460994.500000000, A.D. 2025-Nov-15 00:00:00.0000, 3.022994957515414E+08, -1.273836455766075E+08, 5.356905747685157E+06,
2461001.500000000, A.D. 2025-Nov-22 00:00:00.0000, 3.097063565114853E+08, -1.189678361865344E+08, 3.900751832803898E+06,
2461008.500000000, A.D. 2025-Nov-29 00:00:00.0000, 3.167016299200616E+08, -1.103938753770849E+08, 2.439401420429759E+06,
2461015.500000000, A.D. 2025-Dec-06 00:00:00.0000, 3.232894488019192E+08, -1.016778444498832E+08, 9.749009886595160E+05,
2461022.500000000, A.D. 2025-Dec-13 00:00:00.0000, 3.294741031414809E+08, -9.283497615405384E+07, -4.908256819584072E+05,
2461029.500000000, A.D. 2025-Dec-20 00:00:00.0000, 3.352600001661140E+08, -8.387971748967947E+07, -1.955967639486562E+06,
2461036.500000000, A.D. 2025-Dec-27 00:00:00.0000, 3.406516315168410E+08, -7.482578730671713E+07, -3.418817663030609E+06,
2461043.500000000, A.D. 2026-Jan-03 00:00:00.0000, 3.456535452029032E+08, -6.568622947817951E+07, -4.877763796084706E+06,
2461050.500000000, A.D. 2026-Jan-10 00:00:00.0000, 3.502703217217451E+08, -5.647346251346859E+07, -6.331281521048378E+06,
2461057.500000000, A.D. 2026-Jan-17 00:00:00.0000, 3.545065539499049E+08, -4.719932590315208E+07, -7.777926550750213E+06,
2461064.500000000, A.D. 2026-Jan-24 00:00:00.0000, 3.583668303438807E+08, -3.787512337775191E+07, -9.216328192030175E+06,
2461071.500000000, A.D. 2026-Jan-31 00:00:00.0000, 3.618557210121428E+08, -2.851166329387610E+07, -1.064518323694292E+07,
2461078.500000000, A.D. 2026-Feb-07 00:00:00.0000, 3.649777663231340E+08, -1.911929640891664E+07, -1.206325034799342E+07,
2461085.500000000, A.D. 2026-Feb-14 00:00:00.0000, 3.677374679591742E+08, -9.707951259531051E+06, -1.346934492135281E+07,
2461092.500000000, A.D. 2026-Feb-21 00:00:00.0000, 3.701392825029840E+08, -2.871667578765657E+05, -1.486233437888254E+07,
2461099.500000000, A.D. 2026-Feb-28 00:00:00.0000, 3.721876162127774E+08, 9.133878971206263E+06, -1.624113365983366E+07,
2461106.500000000, A.D. 2026-Mar-07 00:00:00.0000, 3.738868187107457E+08, 1.854634139541215E+07, -1.760470085012229E+07,
2461113.500000000, A.D. 2026-Mar-14 00:00:00.0000, 3.752411781736329E+08, 2.794168153211553E+07, -1.895203336481865E+07,
2461120.500000000, A.D. 2026-Mar-21 00:00:00.0000, 3.762549196487142E+08, 3.731163981112529E+07, -2.028216458316959E+07,
2461127.500000000, A.D. 2026-Mar-28 00:00:00.0000, 3.769322043562384E+08, 4.664821273541800E+07, -2.159416064280829E+07,
2461134.500000000, A.D. 2026-Apr-04 00:00:00.0000, 3.772771292657231E+08, 5.594363124247252E+07, -2.288711739424486E+07,
2461141.500000000, A.D. 2026-Apr-11 00:00:00.0000, 3.772937271243572E+08, 6.519034028177380E+07, -2.416015754975587E+07,
2461148.500000000, A.D. 2026-Apr-18 00:00:00.0000, 3.769859670129626E+08, 7.438097948677368E+07, -2.541242802302940E+07,
2461155.500000000, A.D. 2026-Apr-25 00:00:00.0000, 3.763577554036200E+08, 8.350836485052986E+07, -2.664309744522596E+07,
2461162.500000000, A.D. 2026-May-02 00:00:00.0000, 3.754129376898351E+08, 9.256547127843247E+07, -2.785135384677486E+07,
2461169.500000000, A.D. 2026-May-09 00:00:00.0000, 3.741553002651402E+08, 1.015454158618690E+08, -2.903640250727144E+07,
2461176.500000000, A.D. 2026-May-16 00:00:00.0000, 3.725885734880466E+08, 1.104414419263265E+08, -3.019746398372347E+07,
2461183.500000000, A.D. 2026-May-23 00:00:00.0000, 3.707164355494918E+08, 1.192469047969240E+08, -3.133377222602602E+07,
2461190.500000000, A.D. 2026-May-30 00:00:00.0000, 3.685425151360524E+08, 1.279552595313239E+08, -3.244457255123355E+07,
2461197.500000000, A.D. 2026-Jun-06 00:00:00.0000, 3.660703925573584E+08, 1.365600472817334E+08, -3.352911970529975E+07,
2461204.500000000, A.D. 2026-Jun-13 00:00:00.0000, 3.633036029920945E+08, 1.450548804191246E+08, -3.458667632369234E+07,
2461211.500000000, A.D. 2026-Jun-20 00:00:00.0000, 3.602456413394681E+08, 1.534334292854536E+08, -3.561651149724770E+07,
2461218.500000000, A.D. 2026-Jun-27 00:00:00.0000, 3.568999669723969E+08, 1.616894101798356E+08, -3.661789930746731E+07,
2461225.500000000, A.D. 2026-Jul-04 00:00:00.0000, 3.532700083930019E+08, 1.698165737528024E+08, -3.759011738770194E+07,
2461232.500000000, A.D. 2026-Jul-11 00:00:00.0000, 3.493591680492039E+08, 1.778086936284287E+08, -3.853244553808847E+07,
2461239.500000000, A.D. 2026-Jul-18 00:00:00.0000, 3.451708274137675E+08, 1.856595552344579E+08, -3.944416439497408E+07,
2461246.500000000, A.D. 2026-Jul-25 00:00:00.0000, 3.407083523626498E+08, 1.933629448001806E+08, -4.032455415165146E+07,
2461253.500000000, A.D. 2026-Aug-01 00:00:00.0000, 3.359750989171359E+08, 2.009126384335589E+08, -4.117289333402269E+07,
2461260.500000000, A.D. 2026-Aug-08 00:00:00.0000, 3.309744195855254E+08, 2.083023912036357E+08, -4.198845764965656E+07,
2461267.500000000, A.D. 2026-Aug-15 00:00:00.0000, 3.257096707444608E+08, 2.155259266411549E+08, -4.277051890783492E+07,
2461274.500000000, A.D. 2026-Aug-22 00:00:00.0000, 3.201842203243061E+08, 2.225769278411413E+08, -4.351834383696195E+07,
2461281.500000000, A.D. 2026-Aug-29 00:00:00.0000, 3.144014535377507E+08, 2.294490287636642E+08, -4.423119269745064E+07,
2461288.500000000, A.D. 2026-Sep-05 00:00:00.0000, 3.083647788259408E+08, 2.361358028379612E+08, -4.490831811811023E+07,
2461295.500000000, A.D. 2026-Sep-12 00:00:00.0000, 3.020776365213115E+08, 2.426307513343122E+08, -4.554896417551912E+07,
$$EOE